CUBEBUG-2 (LO-74)       
1 39440U 13066AA  26165.58468701  .00004184  00000+0  38757-3 0  9994
2 39440  97.8903 114.5518 0058575  37.4286 323.0990 14.93741894676604
FUNCUBE-1 (AO-73)       
1 39444U 13066AE  26165.47123696  .00006880  00000+0  42769-3 0  9990
2 39444  97.8269 136.8603 0035410 210.5774 149.3391 15.09460207679256
UWE-3                   
1 39446U 13066AG  26165.40834477  .00004185  00000+0  36061-3 0  9995
2 39446  97.8691 121.4633 0048023 330.3951  29.4552 14.97004771677163
UNISAT-6                
1 40012U 14033C   26165.37667054  .00002974  00000+0  32186-3 0  9990
2 40012  97.7871 318.1381 0046325  78.3311 282.3100 14.88233320645742
DUCHIFAT-1              
1 40021U 14033M   26165.14309872  .00112865  00000+0  11822-2 0  9990
2 40021  98.0474 223.8762 0003417 119.3968 240.7631 15.64039026655277
QB50P1                  
1 40025U 14033R   26165.57970422  .00007974  00000+0  39301-3 0  9993
2 40025  98.0959 176.5426 0007615 225.5920 134.4689 15.18225531652638
LILACSAT-2              
1 40908U 15049K   26165.62776988  .00016375  00000+0  27972-3 0  9994
2 40908  97.4647 202.3719 0005392 257.3320 102.7329 15.51370909595356
FOX-1A (AO-85)          
1 40967U 15058D   26165.53541613  .00002258  00000+0  20925-3 0  9990
2 40967  64.7761 287.2242 0130280  57.6209 303.7433 14.90958458113178
CAS-2T & KS-1Q          
1 41847U 16066G   26165.47017350  .00001606  00000+0  23210-3 0  9993
2 41847  98.3821 241.2375 0342714 137.6929 225.1249 14.44686169504406
RADFXSAT (FOX-1B)       
1 43017U 17073E   26165.56207865  .00008309  00000+0  36324-3 0  9992
2 43017  97.4710  32.8310 0149971 338.3871  21.1071 15.12682818464992
DIWATA-2B               
1 43678U 18084H   26165.63573027  .00002593  00000+0  21103-3 0  9990
2 43678  98.1177   1.7336 0012366 178.3165 181.8101 15.00442286415835
ES'HAIL 2               
1 43700U 18090A   26165.62255124  .00000151  00000+0  00000+0 0  9994
2 43700   0.0155   1.3797 0001522 121.8084  29.6432  1.00269270 27651
FOX-1CLIFF (AO-95)      
1 43770U 18099N   26165.12822934  .00011968  00000+0  45845-3 0  9992
2 43770  97.4390 225.3853 0008298   9.0334 351.1052 15.26654463412757
ITASAT                  
1 43786U 18099AE  26165.45262812  .00006068  00000+0  29240-3 0  9994
2 43786  97.4032 217.0186 0012397  10.0529 350.0951 15.19027057412499
JY1SAT (JO-97)          
1 43803U 18099AX  26165.15960116  .00016674  00000+0  51563-3 0  9990
2 43803  97.4134 227.9830 0004214 277.2169  82.8595 15.33568110413169
UWE-4                   
1 43880U 18111E   26165.30258735  .00032250  00000+0  66149-3 0  9998
2 43880  97.5859  93.5612 0006031 355.2213   4.8977 15.45969448410336
TIANYAN 01              
1 44881U 19093C   26165.62149593  .00001148  00000+0  13547-3 0  9992
2 44881  97.7538 237.9159 0015064  94.7614 265.5323 14.86516292351031
RS-44 & BREEZE-KM R/B   
1 44909U 19096E   26165.58156805  .00000017  00000+0  19677-4 0  9990
2 44909  82.5218 341.4367 0218072 150.2421 211.1295 12.79748832302015
SALSAT                  
1 46495U 20068K   26165.52910376  .00006973  00000+0  24454-3 0  9993
2 46495  97.8843 168.4319 0008235 319.4661  40.5964 15.29765944314951
XW-3 (CAS-9)            
1 50466U 21131B   26165.62493788  .00000525  00000+0  17582-3 0  9993
2 50466  98.4983 258.0282 0005356 102.5784 257.6005 14.41355711234744
GREENCUBE (IO-117)      
1 53109U 22080E   26164.29338770 -.00000003  00000+0  00000+0 0  9990
2 53109  70.1444 299.5995 0008910 290.4576  69.5127  6.42583230 91811
UMKA 1 (RS40S)          
1 57172U 23091G   26165.59364573  .00006092  00000+0  27887-3 0  9990
2 57172  97.5055 224.3006 0014154 125.7472 234.5082 15.20791533163612
CUBESX-HSE 3 (RS42S)    
1 57178U 23091N   26165.62516005  .00012313  00000+0  41061-3 0  9992
2 57178  97.5098 231.1797 0012088 102.5703 257.6891 15.31158208164031
MONITOR-3 (RS58S)       
1 57180U 23091Q   26165.51301533  .00010387  00000+0  38432-3 0  9998
2 57180  97.5090 228.9390 0013114 108.9530 251.3132 15.27794971163887
MONITOR-4 (RS57S)       
1 57182U 23091S   26165.62320489  .00009248  00000+0  34163-3 0  9994
2 57182  97.5083 229.0213 0013120 109.0144 251.2517 15.27882593163904
MONITOR-2 (RS39S)       
1 57184U 23091U   26165.61164867  .00004363  00000+0  21207-3 0  9999
2 57184  97.5076 223.9110 0012670 118.8694 241.3813 15.18889480163567
SVYATOBOR 1 (RS60S)     
1 57187U 23091X   26165.56855399  .00008557  00000+0  32933-3 0  9990
2 57187  97.5096 229.3709 0010902 102.2638 257.9822 15.26576511163916
VIZARD-METEO (RS38S)    
1 57189U 23091Z   26165.60689903  .00016129  00000+0  46225-3 0  9996
2 57189  97.5099 235.0400 0008410  85.3408 274.8796 15.35953804164294
POLYTECH-UNIVERSE 3 (R*)
1 57191U 23091AB  26165.57332176  .00005200  00000+0  25026-3 0  9996
2 57191  97.5052 223.3774 0016727 135.0699 225.1892 15.19090823163554
UTMN 2 (RS27S)          
1 57203U 23091AP  26165.57883135  .00011958  00000+0  38896-3 0  9992
2 57203  97.5095 232.7635 0009397  91.6041 268.6277 15.31995719164145
