OBJECT_NAME,OBJECT_ID,EPOCH,MEAN_MOTION,ECCENTRICITY,INCLINATION,RA_OF_ASC_NODE,ARG_OF_PERICENTER,MEAN_ANOMALY,EPHEMERIS_TYPE,CLASSIFICATION_TYPE,NORAD_CAT_ID,ELEMENT_SET_NO,REV_AT_EPOCH,BSTAR,MEAN_MOTION_DOT,MEAN_MOTION_DDOT
CUBEBUG-2 (LO-74),2013-066AA,2026-06-14T14:01:56.957664,14.93741894,.00585759,97.8903,114.5518,37.4286,323.0990,0,U,39440,999,67660,.38757348E-3,.4184E-4,0
FUNCUBE-1 (AO-73),2013-066AE,2026-06-14T11:18:34.873344,15.09460207,.00354108,97.8269,136.8603,210.5774,149.3391,0,U,39444,999,67925,.42768537E-3,.688E-4,0
UWE-3,2013-066AG,2026-06-14T09:48:00.988128,14.97004771,.00480238,97.8691,121.4633,330.3951,29.4552,0,U,39446,999,67716,.36060995E-3,.4185E-4,0
UNISAT-6,2014-033C,2026-06-14T09:02:24.334656,14.88233320,.00463255,97.7871,318.1381,78.3311,282.3100,0,U,40012,999,64574,.32185713E-3,.2974E-4,0
DUCHIFAT-1,2014-033M,2026-06-14T03:26:03.729408,15.64039026,.00034173,98.0474,223.8762,119.3968,240.7631,0,U,40021,999,65527,.11822122E-2,.112865E-2,0
QB50P1,2014-033R,2026-06-14T13:54:46.444608,15.18225531,.00076155,98.0959,176.5426,225.5920,134.4689,0,U,40025,999,65263,.39300771E-3,.7974E-4,0
LILACSAT-2,2015-049K,2026-06-14T15:03:59.317632,15.51370909,.00053927,97.4647,202.3719,257.3320,102.7329,0,U,40908,999,59535,.27971943E-3,.16375E-3,0
FOX-1A (AO-85),2015-058D,2026-06-14T12:50:59.953632,14.90958458,.01302803,64.7761,287.2242,57.6209,303.7433,0,U,40967,999,11317,.20925083E-3,.2258E-4,0
CAS-2T & KS-1Q,2016-066G,2026-06-14T11:17:02.990400,14.44686169,.03427141,98.3821,241.2375,137.6929,225.1249,0,U,41847,999,50440,.23210323E-3,.1606E-4,0
RADFXSAT (FOX-1B),2017-073E,2026-06-14T13:29:23.595360,15.12682818,.01499718,97.4710,32.8310,338.3871,21.1071,0,U,43017,999,46499,.3632371E-3,.8309E-4,0
DIWATA-2B,2018-084H,2026-06-14T15:15:27.095328,15.00442286,.00123667,98.1177,1.7336,178.3165,181.8101,0,U,43678,999,41583,.21103334E-3,.2593E-4,0
ES'HAIL 2,2018-090A,2026-06-14T14:56:28.427136,1.00269270,.00015227,0.0155,1.3797,121.8084,29.6432,0,U,43700,999,2765,0,.151E-5,0
FOX-1CLIFF (AO-95),2018-099N,2026-06-14T03:04:39.014976,15.26654463,.00082983,97.4390,225.3853,9.0334,351.1052,0,U,43770,999,41275,.45844507E-3,.11968E-3,0
ITASAT,2018-099AE,2026-06-14T10:51:47.069568,15.19027057,.00123972,97.4032,217.0186,10.0529,350.0951,0,U,43786,999,41249,.29239514E-3,.6068E-4,0
JY1SAT (JO-97),2018-099AX,2026-06-14T03:49:49.540224,15.33568110,.00042143,97.4134,227.9830,277.2169,82.8595,0,U,43803,999,41316,.5156255E-3,.16674E-3,0
UWE-4,2018-111E,2026-06-14T07:15:43.547040,15.45969448,.0006031,97.5859,93.5612,355.2213,4.8977,0,U,43880,999,41033,.66149013E-3,.3225E-3,0
TIANYAN 01,2019-093C,2026-06-14T14:54:57.248352,14.86516292,.0015064,97.7538,237.9159,94.7614,265.5323,0,U,44881,999,35103,.13546624E-3,.1148E-4,0
RS-44 & BREEZE-KM R/B,2019-096E,2026-06-14T13:57:27.479520,12.79748832,.02180724,82.5218,341.4367,150.2421,211.1295,0,U,44909,999,30201,.19676807E-4,.17E-6,0
SALSAT,2020-068K,2026-06-14T12:41:54.564864,15.29765944,.0008235,97.8843,168.4319,319.4661,40.5964,0,U,46495,999,31495,.24454211E-3,.6973E-4,0
XW-3 (CAS-9),2021-131B,2026-06-14T14:59:54.632832,14.41355711,.00053566,98.4983,258.0282,102.5784,257.6005,0,U,50466,999,23474,.17581813E-3,.525E-5,0
GREENCUBE (IO-117),2022-080E,2026-06-13T07:02:28.697280,6.42583230,.00089108,70.1444,299.5995,290.4576,69.5127,0,U,53109,999,9181,0,-.3E-7,0
UMKA 1 (RS40S),2023-091G,2026-06-14T14:14:50.991072,15.20791533,.0014154,97.5055,224.3006,125.7472,234.5082,0,U,57172,999,16361,.27886605E-3,.6092E-4,0
CUBESX-HSE 3 (RS42S),2023-091N,2026-06-14T15:00:13.828320,15.31158208,.00120883,97.5098,231.1797,102.5703,257.6891,0,U,57178,999,16403,.41061469E-3,.12313E-3,0
MONITOR-3 (RS58S),2023-091Q,2026-06-14T12:18:44.524512,15.27794971,.00131144,97.5090,228.9390,108.9530,251.3132,0,U,57180,999,16388,.38432029E-3,.10387E-3,0
MONITOR-4 (RS57S),2023-091S,2026-06-14T14:57:24.902496,15.27882593,.00131208,97.5083,229.0213,109.0144,251.2517,0,U,57182,999,16390,.34163207E-3,.9248E-4,0
MONITOR-2 (RS39S),2023-091U,2026-06-14T14:40:46.445088,15.18889480,.00126705,97.5076,223.9110,118.8694,241.3813,0,U,57184,999,16356,.21207076E-3,.4363E-4,0
SVYATOBOR 1 (RS60S),2023-091X,2026-06-14T13:38:43.064736,15.26576511,.00109027,97.5096,229.3709,102.2638,257.9822,0,U,57187,999,16391,.3293317E-3,.8557E-4,0
VIZARD-METEO (RS38S),2023-091Z,2026-06-14T14:33:56.076192,15.35953804,.00084108,97.5099,235.0400,85.3408,274.8796,0,U,57189,999,16429,.46224786E-3,.16129E-3,0
POLYTECH-UNIVERSE 3 (RS46S),2023-091AB,2026-06-14T13:45:35.000064,15.19090823,.00167271,97.5052,223.3774,135.0699,225.1892,0,U,57191,999,16355,.25026473E-3,.52E-4,0
UTMN 2 (RS27S),2023-091AP,2026-06-14T13:53:31.028640,15.31995719,.00093975,97.5095,232.7635,91.6041,268.6277,0,U,57203,999,16414,.38896036E-3,.11958E-3,0
